COSMOS 2413 (712)       
1 28509U 04053B   16036.64218002  .00000067  00000-0  00000+0 0  9997
2 28509  63.1325 194.8175 0005505 163.3206 166.0354  2.13101772 86471
COSMOS 2419 (714)       
1 28915U 05050A   16036.70133794  .00000025  00000-0  00000+0 0  9991
2 28915  65.2623  82.6390 0015615 344.7546  30.0921  2.13111524 78730
COSMOS 2425 (716)       
1 29670U 06062A   16036.67087753 -.00000037  00000-0  10000-3 0  9992
2 29670  65.6890 321.6089 0023365 343.7406  68.9890  2.13104984 70936
COSMOS 2426 (717)       
1 29671U 06062B   16037.48466228 -.00000033  00000-0  10000-3 0  9997
2 29671  65.7053 321.6599 0015004 167.8973  10.9977  2.13103128 70954
COSMOS 2424 (715)       
1 29672U 06062C   16037.39015497 -.00000033  00000-0  10000-3 0  9996
2 29672  65.6905 321.5944 0014444 167.1413 115.9337  2.13102099 70943
COSMOS 2433 (720)       
1 32275U 07052A   16037.42423927  .00000029  00000-0  10000-3 0  9998
2 32275  65.2785  82.3830 0004495 264.6176 197.9157  2.13105092 64464
COSMOS 2432 (719)       
1 32276U 07052B   16037.49369106  .00000030  00000-0  10000-3 0  9996
2 32276  65.2900  82.4436 0012453 329.3624 140.5635  2.13104285 64465
COSMOS 2434 (721)       
1 32393U 07065A   16036.75682654 -.00000037  00000-0  00000+0 0  9997
2 32393  65.3084 320.9921 0002491  81.6649 121.9442  2.13102759 63152
COSMOS 2436 (723)       
1 32395U 07065C   16036.53228573 -.00000038  00000-0  10000-3 0  9997
2 32395  65.3215 321.0401 0018758 350.3557 132.9875  2.13102838 63084
COSMOS 2443 (725)       
1 33379U 08046B   16037.47922153  .00000030  00000-0  10000-3 0  9990
2 33379  65.2067  81.8102 0018311 190.7698 220.6482  2.13101515 57338
COSMOS 2456 (730)       
1 36111U 09070A   16037.23247391  .00000074  00000-0  00000+0 0  9996
2 36111  64.1870 200.5852 0003559 351.0786  26.3446  2.13102889 47835
COSMOS 2457 (733)       
1 36112U 09070B   16037.47834647  .00000072  00000-0  00000+0 0  9997
2 36112  64.1689 200.5064 0007446 145.9501 190.9874  2.13101567 47838
COSMOS 2458 (734)       
1 36113U 09070C   16037.50019961  .00000072  00000-0  10000-3 0  9991
2 36113  64.1742 200.5105 0003161  61.0122 339.9707  2.13102004 47840
COSMOS 2459 (731)       
1 36400U 10007A   16036.73085150  .00000025  00000-0  10000-3 0  9997
2 36400  65.1850  81.5736 0028471 349.4322 167.6639  2.13102364 46177
COSMOS 2461 (735)       
1 36401U 10007B   16037.21138990  .00000028  00000-0  10000-3 0  9996
2 36401  65.1780  81.5399 0004266  67.2091   9.0856  2.13102338 46181
COSMOS 2460 (732)       
1 36402U 10007C   16037.15488932  .00000028  00000-0  10000-3 0  9994
2 36402  65.1684  81.5203 0001804 263.9729 171.0677  2.13102003 46187
COSMOS 2466 (738)       
1 37137U 10041A   16036.47805095 -.00000039  00000-0  10000-3 0  9998
2 37137  64.8920 321.1711 0018356 154.7410  58.6030  2.13102300 42249
COSMOS 2465 (737)       
1 37138U 10041B   16036.60725347 -.00000038  00000-0  00000+0 0  9999
2 37138  64.9085 321.2371 0032918 169.4377 325.5981  2.13102937 42248
COSMOS 2464 (736)       
1 37139U 10041C   16037.43782499 -.00000033  00000-0  00000+0 0  9998
2 37139  64.9102 321.2017 0023324  10.4243 176.3895  2.13102983 42263
COSMOS 2471 (701K)      
1 37372U 11009A   16037.47978701  .00000030  00000-0  00000+0 0  9995
2 37372  65.1663  81.4590 0009062 239.3337 217.1125  2.13103014 38460
COSMOS 2474 (742)       
1 37829U 11055A   16037.49869774  .00000073  00000-0  00000+0 0  9991
2 37829  64.5112 200.9336 0005557 248.2461 195.4076  2.13101918 33837
COSMOS 2476 (744)       
1 37867U 11064A   16036.53667184  .00000081  00000-0  00000+0 0  9997
2 37867  64.4913 201.0510 0014405 245.0286 226.3634  2.13102010 33169
COSMOS 2477 (745)       
1 37868U 11064B   16036.91327747  .00000078  00000-0  00000+0 0  9994
2 37868  64.4995 201.0772 0012404 246.1372 333.5650  2.13101850 33121
COSMOS 2475 (743)       
1 37869U 11064C   16036.69953955  .00000079  00000-0  00000+0 0  9997
2 37869  64.5068 201.0708 0018002 278.5689  93.2324  2.13102032 33135
COSMOS 2478 (746)       
1 37938U 11071A   16037.19515685  .00000028  00000-0  00000+0 0  9996
2 37938  65.1918  81.6888 0014663 241.4663 116.3219  2.13088514 32748
COSMOS 2485 (747)       
1 39155U 13019A   16037.11173093  .00000076  00000-0  00000+0 0  9991
2 39155  64.6601 200.9528 0014733 238.7952 358.9517  2.13102040 21642
COSMOS 2492 (754)       
1 39620U 14012A   16037.41819830  .00000029  00000-0  10000-3 0  9994
2 39620  65.0574  81.5189 0016308 327.2582 178.3863  2.13103692 14602
COSMOS 2500 (755)       
1 40001U 14032A   16037.49620494  .00000029  00000-0  00000+0 0  9990
2 40001  64.9978  81.5495 0007216 218.0475 211.4104  2.13102988 12825
COSMOS 2501 (702K)      
1 40315U 14075A   16037.43882942 -.00000036  00000-0  00000+0 0  9996
2 40315  64.6782 322.6999 0017433 240.9685 306.3735  2.13101509  9222
